CCSDS_OMM_VERS = 2.0
CREATION_DATE  = 
ORIGINATOR     = 

OBJECT_NAME    = SL-16 R/B
OBJECT_ID      = 1998-043G
CENTER_NAME    = EARTH
REF_FRAME      = TEME
TIME_SYSTEM    = UTC
MEAN_ELEMENT_THEORY = SGP/SGP4

EPOCH          = 2026-02-17T10:54:16.144128
MEAN_MOTION    = 14.26044825
ECCENTRICITY   = .00109527
INCLINATION    = 98.8221
RA_OF_ASC_NODE = 1.6787
ARG_OF_PERICENTER = 74.5953
MEAN_ANOMALY   = 285.6435

EPHEMERIS_TYPE = 0
CLASSIFICATION_TYPE = U
NORAD_CAT_ID   = 25400
ELEMENT_SET_NO = 999
REV_AT_EPOCH   = 43610
BSTAR          = .44635176E-4
MEAN_MOTION_DOT = .61E-6
MEAN_MOTION_DDOT = 0

CCSDS_OMM_VERS = 2.0
CREATION_DATE  = 
ORIGINATOR     = 

OBJECT_NAME    = SL-16 R/B
OBJECT_ID      = 1998-045B
CENTER_NAME    = EARTH
REF_FRAME      = TEME
TIME_SYSTEM    = UTC
MEAN_ELEMENT_THEORY = SGP/SGP4

EPOCH          = 2026-02-17T15:42:42.022656
MEAN_MOTION    = 14.16189560
ECCENTRICITY   = .0005765
INCLINATION    = 71.0090
RA_OF_ASC_NODE = 223.7055
ARG_OF_PERICENTER = 43.6328
MEAN_ANOMALY   = 316.5250

EPHEMERIS_TYPE = 0
CLASSIFICATION_TYPE = U
NORAD_CAT_ID   = 25407
ELEMENT_SET_NO = 999
REV_AT_EPOCH   = 42426
BSTAR          = .15125E-3
MEAN_MOTION_DOT = .252E-5
MEAN_MOTION_DDOT = 0

CCSDS_OMM_VERS = 2.0
CREATION_DATE  = 
ORIGINATOR     = 

OBJECT_NAME    = ISS (ZARYA)
OBJECT_ID      = 1998-067A
CENTER_NAME    = EARTH
REF_FRAME      = TEME
TIME_SYSTEM    = UTC
MEAN_ELEMENT_THEORY = SGP/SGP4

EPOCH          = 2026-02-17T13:40:51.309120
MEAN_MOTION    = 15.48664181
ECCENTRICITY   = .0011023
INCLINATION    = 51.6323
RA_OF_ASC_NODE = 171.8070
ARG_OF_PERICENTER = 108.2943
MEAN_ANOMALY   = 251.9246

EPHEMERIS_TYPE = 0
CLASSIFICATION_TYPE = U
NORAD_CAT_ID   = 25544
ELEMENT_SET_NO = 999
REV_AT_EPOCH   = 55321
BSTAR          = .15504E-3
MEAN_MOTION_DOT = .8013E-4
MEAN_MOTION_DDOT = 0

CCSDS_OMM_VERS = 2.0
CREATION_DATE  = 
ORIGINATOR     = 

OBJECT_NAME    = CZ-4B R/B
OBJECT_ID      = 1999-025C
CENTER_NAME    = EARTH
REF_FRAME      = TEME
TIME_SYSTEM    = UTC
MEAN_ELEMENT_THEORY = SGP/SGP4

EPOCH          = 2026-02-17T17:01:43.088736
MEAN_MOTION    = 14.18261226
ECCENTRICITY   = .0037808
INCLINATION    = 98.6668
RA_OF_ASC_NODE = 93.4604
ARG_OF_PERICENTER = 43.7946
MEAN_ANOMALY   = 64.8529

EPHEMERIS_TYPE = 0
CLASSIFICATION_TYPE = U
NORAD_CAT_ID   = 25732
ELEMENT_SET_NO = 999
REV_AT_EPOCH   = 38533
BSTAR          = .4065E-4
MEAN_MOTION_DOT = .41E-6
MEAN_MOTION_DDOT = 0

CCSDS_OMM_VERS = 2.0
CREATION_DATE  = 
ORIGINATOR     = 

OBJECT_NAME    = OKEAN-O
OBJECT_ID      = 1999-039A
CENTER_NAME    = EARTH
REF_FRAME      = TEME
TIME_SYSTEM    = UTC
MEAN_ELEMENT_THEORY = SGP/SGP4

EPOCH          = 2026-02-17T15:27:29.691360
MEAN_MOTION    = 14.80301300
ECCENTRICITY   = .0001782
INCLINATION    = 97.9488
RA_OF_ASC_NODE = 108.7351
ARG_OF_PERICENTER = 79.6021
MEAN_ANOMALY   = 280.5392

EPHEMERIS_TYPE = 0
CLASSIFICATION_TYPE = U
NORAD_CAT_ID   = 25860
ELEMENT_SET_NO = 999
REV_AT_EPOCH   = 43142
BSTAR          = .88785E-4
MEAN_MOTION_DOT = .624E-5
MEAN_MOTION_DDOT = 0

CCSDS_OMM_VERS = 2.0
CREATION_DATE  = 
ORIGINATOR     = 

OBJECT_NAME    = SL-16 R/B
OBJECT_ID      = 1999-039B
CENTER_NAME    = EARTH
REF_FRAME      = TEME
TIME_SYSTEM    = UTC
MEAN_ELEMENT_THEORY = SGP/SGP4

EPOCH          = 2026-02-17T15:25:45.462720
MEAN_MOTION    = 14.81702038
ECCENTRICITY   = .0013961
INCLINATION    = 98.0011
RA_OF_ASC_NODE = 107.7649
ARG_OF_PERICENTER = 327.1761
MEAN_ANOMALY   = 32.8583

EPHEMERIS_TYPE = 0
CLASSIFICATION_TYPE = U
NORAD_CAT_ID   = 25861
ELEMENT_SET_NO = 999
REV_AT_EPOCH   = 43389
BSTAR          = .72161E-4
MEAN_MOTION_DOT = .515E-5
MEAN_MOTION_DDOT = 0

CCSDS_OMM_VERS = 2.0
CREATION_DATE  = 
ORIGINATOR     = 

OBJECT_NAME    = DELTA 2 R/B
OBJECT_ID      = 1999-041E
CENTER_NAME    = EARTH
REF_FRAME      = TEME
TIME_SYSTEM    = UTC
MEAN_ELEMENT_THEORY = SGP/SGP4

EPOCH          = 2026-02-17T08:04:26.424480
MEAN_MOTION    = 14.11761236
ECCENTRICITY   = .05022126
INCLINATION    = 51.7658
RA_OF_ASC_NODE = 22.5610
ARG_OF_PERICENTER = 288.3168
MEAN_ANOMALY   = 66.3766

EPHEMERIS_TYPE = 0
CLASSIFICATION_TYPE = U
NORAD_CAT_ID   = 25876
ELEMENT_SET_NO = 999
REV_AT_EPOCH   = 36015
BSTAR          = .36488584E-3
MEAN_MOTION_DOT = .2035E-4
MEAN_MOTION_DDOT = 0

CCSDS_OMM_VERS = 2.0
CREATION_DATE  = 
ORIGINATOR     = 

OBJECT_NAME    = HELIOS 1B
OBJECT_ID      = 1999-064A
CENTER_NAME    = EARTH
REF_FRAME      = TEME
TIME_SYSTEM    = UTC
MEAN_ELEMENT_THEORY = SGP/SGP4

EPOCH          = 2026-02-17T16:04:55.601472
MEAN_MOTION    = 14.87611094
ECCENTRICITY   = .0002328
INCLINATION    = 98.1719
RA_OF_ASC_NODE = 310.3231
ARG_OF_PERICENTER = 101.4623
MEAN_ANOMALY   = 258.6853

EPHEMERIS_TYPE = 0
CLASSIFICATION_TYPE = U
NORAD_CAT_ID   = 25977
ELEMENT_SET_NO = 999
REV_AT_EPOCH   = 68228
BSTAR          = .19217E-3
MEAN_MOTION_DOT = .1688E-4
MEAN_MOTION_DDOT = 0

CCSDS_OMM_VERS = 2.0
CREATION_DATE  = 
ORIGINATOR     = 

OBJECT_NAME    = TERRA
OBJECT_ID      = 1999-068A
CENTER_NAME    = EARTH
REF_FRAME      = TEME
TIME_SYSTEM    = UTC
MEAN_ELEMENT_THEORY = SGP/SGP4

EPOCH          = 2026-02-17T18:59:44.295360
MEAN_MOTION    = 14.60992155
ECCENTRICITY   = .0001285
INCLINATION    = 97.9636
RA_OF_ASC_NODE = 102.9821
ARG_OF_PERICENTER = 212.7708
MEAN_ANOMALY   = 239.7849

EPHEMERIS_TYPE = 0
CLASSIFICATION_TYPE = U
NORAD_CAT_ID   = 25994
ELEMENT_SET_NO = 999
REV_AT_EPOCH   = 39217
BSTAR          = .92069E-4
MEAN_MOTION_DOT = .407E-5
MEAN_MOTION_DDOT = 0

CCSDS_OMM_VERS = 2.0
CREATION_DATE  = 
ORIGINATOR     = 

OBJECT_NAME    = SL-16 R/B
OBJECT_ID      = 2000-006B
CENTER_NAME    = EARTH
REF_FRAME      = TEME
TIME_SYSTEM    = UTC
MEAN_ELEMENT_THEORY = SGP/SGP4

EPOCH          = 2026-02-17T15:57:21.910752
MEAN_MOTION    = 14.15818415
ECCENTRICITY   = .0017976
INCLINATION    = 71.0022
RA_OF_ASC_NODE = 139.9429
ARG_OF_PERICENTER = 218.2763
MEAN_ANOMALY   = 141.7085

EPHEMERIS_TYPE = 0
CLASSIFICATION_TYPE = U
NORAD_CAT_ID   = 26070
ELEMENT_SET_NO = 999
REV_AT_EPOCH   = 34572
BSTAR          = -.38571E-4
MEAN_MOTION_DOT = -.124E-5
MEAN_MOTION_DDOT = 0

CCSDS_OMM_VERS = 2.0
CREATION_DATE  = 
ORIGINATOR     = 

OBJECT_NAME    = TITAN 4B R/B
OBJECT_ID      = 2000-047B
CENTER_NAME    = EARTH
REF_FRAME      = TEME
TIME_SYSTEM    = UTC
MEAN_ELEMENT_THEORY = SGP/SGP4

EPOCH          = 2026-02-17T18:02:13.348032
MEAN_MOTION    = 15.09381376
ECCENTRICITY   = .0037273
INCLINATION    = 67.9880
RA_OF_ASC_NODE = 96.5694
ARG_OF_PERICENTER = 59.6578
MEAN_ANOMALY   = 300.8249

EPHEMERIS_TYPE = 0
CLASSIFICATION_TYPE = U
NORAD_CAT_ID   = 26474
ELEMENT_SET_NO = 999
REV_AT_EPOCH   = 38990
BSTAR          = .18437E-3
MEAN_MOTION_DOT = .2863E-4
MEAN_MOTION_DDOT = 0

CCSDS_OMM_VERS = 2.0
CREATION_DATE  = 
ORIGINATOR     = 

OBJECT_NAME    = ENVISAT
OBJECT_ID      = 2002-009A
CENTER_NAME    = EARTH
REF_FRAME      = TEME
TIME_SYSTEM    = UTC
MEAN_ELEMENT_THEORY = SGP/SGP4

EPOCH          = 2026-02-17T20:35:42.737856
MEAN_MOTION    = 14.39029112
ECCENTRICITY   = .0001367
INCLINATION    = 98.3696
RA_OF_ASC_NODE = 2.9320
ARG_OF_PERICENTER = 87.0149
MEAN_ANOMALY   = 298.0355

EPHEMERIS_TYPE = 0
CLASSIFICATION_TYPE = U
NORAD_CAT_ID   = 27386
ELEMENT_SET_NO = 999
REV_AT_EPOCH   = 25632
BSTAR          = .47555E-4
MEAN_MOTION_DOT = .104E-5
MEAN_MOTION_DDOT = 0

