SL-16 R/B               
1 25400U 98043G   26048.45435352  .00000061  00000+0  44635-4 0  9998
2 25400  98.8221   1.6787 0010952  74.5953 285.6435 14.26044825436105
SL-16 R/B               
1 25407U 98045B   26048.65465304  .00000252  00000+0  15125-3 0  9992
2 25407  71.0090 223.7055 0005765  43.6328 316.5250 14.16189560424261
ISS (ZARYA)             
1 25544U 98067A   26048.57003830  .00008013  00000+0  15504-3 0  9995
2 25544  51.6323 171.8070 0011023 108.2943 251.9246 15.48664181553219
CZ-4B R/B               
1 25732U 99025C   26048.70952649  .00000041  00000+0  40650-4 0  9999
2 25732  98.6668  93.4604 0037808  43.7946  64.8529 14.18261226385338
OKEAN-O                 
1 25860U 99039A   26048.64409365  .00000624  00000+0  88785-4 0  9999
2 25860  97.9488 108.7351 0001782  79.6021 280.5392 14.80301300431429
SL-16 R/B               
1 25861U 99039B   26048.64288730  .00000515  00000+0  72161-4 0  9991
2 25861  98.0011 107.7649 0013961 327.1761  32.8583 14.81702038433894
DELTA 2 R/B             
1 25876U 99041E   26048.33641695  .00002035  00000+0  36489-3 0  9990
2 25876  51.7658  22.5610 0502212 288.3168  66.3766 14.11761236360157
HELIOS 1B               
1 25977U 99064A   26048.67008798  .00001688  00000+0  19217-3 0  9998
2 25977  98.1719 310.3231 0002328 101.4623 258.6853 14.87611094682286
TERRA                   
1 25994U 99068A   26048.79148490  .00000407  00000+0  92069-4 0  9993
2 25994  97.9636 102.9821 0001285 212.7708 239.7849 14.60992155392173
SL-16 R/B               
1 26070U 00006B   26048.66483693 -.00000124  00000+0 -38571-4 0  9992
2 26070  71.0022 139.9429 0017976 218.2763 141.7085 14.15818415345720
TITAN 4B R/B            
1 26474U 00047B   26048.75154338  .00002863  00000+0  18437-3 0  9994
2 26474  67.9880  96.5694 0037273  59.6578 300.8249 15.09381376389902
ENVISAT                 
1 27386U 02009A   26048.85813354  .00000104  00000+0  47555-4 0  9998
2 27386  98.3696   2.9320 0001367  87.0149 298.0355 14.39029112256323
